NORAD_CAT_ID,OBJECT_NAME,OBJECT_TYPE,EPOCH,MEAN_MOTION,ECCENTRICITY,INCLINATION,RA_OF_ASC_NODE,ARG_OF_PERICENTER,MEAN_ANOMALY,BSTAR,MEAN_MOTION_DOT,MEAN_MOTION_DDOT,TLE_LINE0,TLE_LINE1,TLE_LINE2,SEMIMAJOR_AXIS,PERIOD,APOGEE,PERIGEE,DECAYED
52631.0,STARLINK-3794,PAYLOAD,2022-11-01 07:50:30,15.08827867,0.0002194,53.2196,5.5017,36.8727,323.2416,-0.0001785,-3.127e-05,0.0,0 STARLINK-3794,1 52631U 22052AK  22305.32674511 -.00003127  00000-0 -17850-3 0  9998,2 52631  53.2196   5.5017 0002194  36.8727 323.2416 15.08827867 26531,6917.917,95.438,541.3,538.265,0.0
52631.0,STARLINK-3794,PAYLOAD,2022-11-01 09:25:54,15.0882654,0.0002281,53.2199,5.2054,32.69,327.4233,-0.00018155,-3.176e-05,0.0,0 STARLINK-3794,1 52631U 22052AK  22305.39298658 -.00003176  00000-0 -18155-3 0  9992,2 52631  53.2199   5.2054 0002281  32.6900 327.4233 15.08826540 26176,6917.922,95.438,541.365,538.2090000000002,0.0
52631.0,STARLINK-3794,PAYLOAD,2022-11-01 14:12:03,15.08830091,0.0002218999999999,53.2207,4.3131,33.878,326.2354,-4.4112e-05,-9.9e-06,0.0,0 STARLINK-3794,1 52631U 22052AK  22305.59170882 -.00000990  00000-0 -44112-4 0  9996,2 52631  53.2207   4.3131 0002219  33.8780 326.2354 15.08830091 26203,6917.911,95.438,541.311,538.241,0.0
52631.0,STARLINK-3794,PAYLOAD,2022-11-02 10:52:04,15.08830324,0.0002281,53.2207,0.4477,33.9549,326.1589,1.4649000000000008e-05,-5.5e-07,0.0,0 STARLINK-3794,1 52631U 22052AK  22306.45283417 -.00000055  00000-0  14649-4 0  9994,2 52631  53.2207   0.4477 0002281  33.9549 326.1589 15.08830324 26709,6917.91,95.438,541.3530000000002,538.197,0.0
52631.0,STARLINK-3794,PAYLOAD,2022-11-02 12:27:28,15.088227,0.0002311999999999,53.2209,0.1521,35.5797,324.5349,-3.0728e-05,-7.77e-06,0.0,0 STARLINK-3794,1 52631U 22052AK  22306.51908138 -.00000777  00000-0 -30728-4 0  9993,2 52631  53.2209   0.1521 0002312  35.5797 324.5349 15.08822700 26341,6917.933000000001,95.439,541.398,538.1990000000002,0.0
52631.0,STARLINK-3794,PAYLOAD,2022-11-02 20:24:24,15.08822667,0.000217,53.2205,358.6629,31.8241,328.2882,3.3442e-05,2.44e-06,0.0,0 STARLINK-3794,1 52631U 22052AK  22306.85028207  .00000244  00000-0  33442-4 0  9993,2 52631  53.2205 358.6629 0002170  31.8241 328.2882 15.08822667 26392,6917.933000000001,95.439,541.3,538.297,0.0
52631.0,STARLINK-3794,PAYLOAD,2022-11-03 12:18:15,15.08837572,0.0002235,53.2194,355.6893,29.6371,330.4748,0.00026041,3.858e-05,0.0,0 STARLINK-3794,1 52631U 22052AK  22307.51267641  .00003858  00000-0  26041-3 0  9994,2 52631  53.2194 355.6893 0002235  29.6371 330.4748 15.08837572 26498,6917.888000000001,95.438,541.299,538.207,0.0
52631.0,STARLINK-3794,PAYLOAD,2022-11-04 08:58:14,15.08868661,0.0002338,53.2194,351.8239,31.058000000000003,329.055,0.00071202,0.00011071,0.0,0 STARLINK-3794,1 52631U 22052AK  22308.37378284  .00011071  00000-0  71202-3 0  9990,2 52631  53.2194 351.8239 0002338  31.0580 329.0550 15.08868661 26996,6917.793000000002,95.436,541.275,538.04,0.0
52631.0,STARLINK-3794,PAYLOAD,2022-11-04 12:09:00,15.08863764,0.0001976,53.219,351.2294,28.632,331.478,0.00045937,7.035e-05,0.0,0 STARLINK-3794,1 52631U 22052AK  22308.50626149  .00007035  00000-0  45937-3 0  9992,2 52631  53.2190 351.2294 0001976  28.6320 331.4780 15.08863764 26641,6917.808000000001,95.436,541.04,538.306,0.0
52631.0,STARLINK-3794,PAYLOAD,2022-11-04 15:19:47,15.08859211,0.0002746,53.2199,350.6365,31.5875,328.5281,0.00025385,3.756e-05,0.0,0 STARLINK-3794,1 52631U 22052AK  22308.63874234  .00003756  00000-0  25385-3 0  9997,2 52631  53.2199 350.6365 0002746  31.5875 328.5281 15.08859211 27035,6917.821999999999,95.436,541.586,537.7869999999998,0.0
52631.0,STARLINK-3794,PAYLOAD,2022-11-04 20:05:56,15.08846723,0.0002479,53.2191,349.7426,36.1711,323.9448,-0.00012706,-2.311e-05,0.0,0 STARLINK-3794,1 52631U 22052AK  22308.83746307 -.00002311  00000-0 -12706-3 0  9999,2 52631  53.2191 349.7426 0002479  36.1711 323.9448 15.08846723 26696,6917.86,95.437,541.44,538.01,0.0
52631.0,STARLINK-3794,PAYLOAD,2022-11-05 02:27:29,15.08845849,0.0002225,53.2197,348.5527,32.44,327.6729,5.941e-05,6.57e-06,0.0,0 STARLINK-3794,1 52631U 22052AK  22309.10242410  .00000657  00000-0  59410-4 0  9999,2 52631  53.2197 348.5527 0002225  32.4400 327.6729 15.08845849 27102,6917.863,95.437,541.2669999999998,538.188,0.0
52631.0,STARLINK-3794,PAYLOAD,2022-11-05 10:24:25,15.08831793,0.0002175,53.2197,347.0659,31.2334,328.8787,-0.00013218,-2.391e-05,0.0,0 STARLINK-3794,1 52631U 22052AK  22309.43363196 -.00002391  00000-0 -13218-3 0  9994,2 52631  53.2197 347.0659 0002175  31.2334 328.8787 15.08831793 27154,6917.905,95.438,541.275,538.266,0.0
52631.0,STARLINK-3794,PAYLOAD,2022-11-05 11:59:49,15.08824904,0.0002294,53.2194,346.7711,25.7454,334.3652,-0.00021509,-3.709e-05,0.0,0 STARLINK-3794,1 52631U 22052AK  22309.49987570 -.00003709  00000-0 -21509-3 0  9994,2 52631  53.2194 346.7711 0002294  25.7454 334.3652 15.08824904 26797,6917.927,95.439,541.379,538.205,0.0
52631.0,STARLINK-3794,PAYLOAD,2022-11-05 13:35:12,15.08820118,0.0002175,53.2191,346.4708,31.0047,329.1074,-0.00029988,-5.055e-05,0.0,0 STARLINK-3794,1 52631U 22052AK  22309.56611985 -.00005055  00000-0 -29988-3 0  9991,2 52631  53.2191 346.4708 0002175  31.0047 329.1074 15.08820118 27179,6917.941,95.439,541.311,538.302,0.0
52631.0,STARLINK-3794,PAYLOAD,2022-11-05 19:56:45,15.08820032,0.000234,53.2194,345.2828,30.4773,329.6355,-0.00029012,-4.9e-05,0.0,0 STARLINK-3794,1 52631U 22052AK  22309.83108296 -.00004900  00000-0 -29012-3 0  9993,2 52631  53.2194 345.2828 0002340  30.4773 329.6355 15.08820032 26840,6917.941,95.439,541.425,538.188,0.0
52631.0,STARLINK-3794,PAYLOAD,2022-11-06 10:15:13,15.08829626,0.0002627,53.2192,342.6066,32.1062,328.009,-4.7423e-05,-1.043e-05,0.0,0 STARLINK-3794,1 52631U 22052AK  22310.42724407 -.00001043  00000-0 -47423-4 0  9990,2 52631  53.2192 342.6066 0002627  32.1062 328.0090 15.08829626 27300,6917.9119999999975,95.438,541.594,537.96,0.0
52631.0,STARLINK-3794,PAYLOAD,2022-11-06 11:50:36,15.08832332,0.0002651,53.2194,342.3093,32.4843,327.6312,1.0142e-05,-1.27e-06,0.0,0 STARLINK-3794,1 52631U 22052AK  22310.49348364 -.00000127  00000-0  10142-4 0  9990,2 52631  53.2194 342.3093 0002651  32.4843 327.6312 15.08832332 26945,6917.904,95.438,541.6030000000002,537.935,0.0
52631.0,STARLINK-3794,PAYLOAD,2022-11-07 13:16:47,15.08849536,0.0002537,53.2188,337.5518,33.7204,326.3949,0.00065755,0.00010195,0.0,0 STARLINK-3794,1 52631U 22052AK  22311.55332954  .00010195  00000-0  65755-3 0  9990,2 52631  53.2188 337.5518 0002537  33.7204 326.3949 15.08849536 27479,6917.851,95.437,541.471,537.961,0.0
52631.0,STARLINK-3794,PAYLOAD,2022-11-08 08:21:24,15.08867105,0.0002601,53.219,333.9834,35.426,324.6904,0.00068536,0.00010644,0.0,0 STARLINK-3794,1 52631U 22052AK  22312.34819873  .00010644  00000-0  68536-3 0  9997,2 52631  53.2190 333.9834 0002601  35.4260 324.6904 15.08867105 27223,6917.7980000000025,95.436,541.462,537.863,0.0
52631.0,STARLINK-3794,PAYLOAD,2022-11-08 13:07:33,15.08863178,0.0002609,53.2189,333.0912,33.6722,326.4436,0.00041256,6.288e-05,0.0,0 STARLINK-3794,1 52631U 22052AK  22312.54691702  .00006288  00000-0  41256-3 0  9997,2 52631  53.2189 333.0912 0002609  33.6722 326.4436 15.08863178 27259,6917.81,95.436,541.479,537.87,0.0
52631.0,STARLINK-3794,PAYLOAD,2022-11-09 08:12:09,15.08872178,0.0001673,53.2192,329.5225,27.2614,332.8466,0.0003829,5.816e-05,0.0,0 STARLINK-3794,1 52631U 22052AK  22313.34177942  .00005816  00000-0  38290-3 0  9991,2 52631  53.2192 329.5225 0001673  27.2614 332.8466 15.08872178 27376,6917.781999999997,95.436,540.804,538.49,0.0
52631.0,STARLINK-3794,PAYLOAD,2022-11-09 17:44:29,15.08824113,0.0002522,53.2191,327.7386,32.4499,327.6648,-0.00069675,-0.00011356,0.0,0 STARLINK-3794,1 52631U 22052AK  22313.73923251 -.00011356  00000-0 -69675-3 0  9995,2 52631  53.2191 327.7386 0002522  32.4499 327.6648 15.08824113 27804,6917.929,95.439,541.539,538.049,0.0
52631.0,STARLINK-3794,PAYLOAD,2022-11-10 11:13:45,15.0882683,0.0002472,53.2195,324.467,26.701,333.4109,0.00065963,0.00010222,0.0,0 STARLINK-3794,1 52631U 22052AK  22314.46788232  .00010222  00000-0  65963-3 0  9999,2 52631  53.2195 324.4670 0002472  26.7010 333.4109 15.08826830 27543,6917.920999999999,95.438,541.496,538.076,0.0
52631.0,STARLINK-3794,PAYLOAD,2022-11-11 07:53:46,15.08837805,0.0002506,53.2194,320.5998,25.9216,334.1901,0.00038952,5.916e-05,0.0,0 STARLINK-3794,1 52631U 22052AK  22315.32900536  .00005916  00000-0  38952-3 0  9990,2 52631  53.2194 320.5998 0002506  25.9216 334.1901 15.08837805 27675,6917.887,95.438,541.486,538.018,0.0
52631.0,STARLINK-3794,PAYLOAD,2022-11-11 17:26:04,15.08844053,0.0002465,53.2197,318.817,27.6961,332.4162,0.00049599,7.615e-05,0.0,0 STARLINK-3794,1 52631U 22052AK  22315.72644538  .00007615  00000-0  49599-3 0  9998,2 52631  53.2197 318.8170 0002465  27.6961 332.4162 15.08844053 28102,6917.868,95.437,541.438,538.028,0.0
52631.0,STARLINK-3794,PAYLOAD,2022-11-12 09:19:56,15.08842863,0.000248,53.2191,315.8437,29.1856,330.9275,0.00026759,3.973e-05,0.0,0 STARLINK-3794,1 52631U 22052AK  22316.38884565  .00003973  00000-0  26759-3 0  9993,2 52631  53.2191 315.8437 0002480  29.1856 330.9275 15.08842863 28202,6917.871999999999,95.437,541.452,538.021,0.0
52631.0,STARLINK-3794,PAYLOAD,2022-11-13 09:10:43,15.08841908,0.000264,53.2186,311.3848,31.467,328.648,0.00023506,3.455e-05,0.0,0 STARLINK-3794,1 52631U 22052AK  22317.38244767  .00003455  00000-0  23506-3 0  9990,2 52631  53.2186 311.3848 0002640  31.4670 328.6480 15.08841908 28358,6917.875,95.437,541.566,537.913,0.0
52631.0,STARLINK-3794,PAYLOAD,2022-11-14 09:01:31,15.08829292,0.0002699,53.2195,306.9241,33.5014,326.6148,-4.2286e-05,-9.61e-06,0.0,0 STARLINK-3794,1 52631U 22052AK  22318.37605737 -.00000961  00000-0 -42286-4 0  9996,2 52631  53.2195 306.9241 0002699  33.5014 326.6148 15.08829292 28502,6917.913000000001,95.438,541.645,537.911,0.0
